#dP2023  5  7  0  0  0.00000000      96 __u+U ITR00 EXT  IAC
## 2261      0.00000000   900.00000000 60071 0.0000000000000
+  119   C06C07C08C09C10C11C12C13C14C16C19C20C21C22C23C24C25
+        C26C27C28C29C30C32C33C34C35C36C37C38C39C40C41C42C43
+        C44C45C46E02E03E04E05E07E08E09E10E11E12E13E14E15E18
+        E19E21E24E25E26E27E30E31E33E34E36G01G02G03G04G05G06
+        G07G08G09G10G11G12G13G14G15G16G17G18G19G20G21G22G23
+        G24G25G26G27G28G29G30G31G32J02J03J04R01R02R03R04R05
+        R07R08R09R11R12R13R14R15R16R17R18R19R20R21R22R24R25
++        10 10  9 11 10 11 11 11 10  9 10 10 11 11 10  9 10
++        10 11 10 11 11 11 11 11 10 10 11 10  9  9 11 10 10
++        10 11 10 10 11  9 10  9 10  9  9  9 10 10  9 10 10
++        10 10 10 10 11  9  9 10  9 10 10 10 10 10 10 10  9
++        10 10 10 10  9  9 10  9 10 10 10 10 10 10 10 10 10
++        10  9 10 10 10 10 10 10 10 12  9  9 11 11 10 11 10
++        11 10 10 11 11 10 10 11 11 11 11 11 10 10 11 11  9
%c M  cc GPS ccc cccc cccc cccc cccc ccccc ccccc ccccc ccccc
%c cc cc ccc ccc cccc cccc cccc cccc ccccc ccccc ccccc ccccc
%f  0.0000000  0.000000000  0.00000000000  0.000000000000000
%f  0.0000000  0.000000000  0.00000000000  0.000000000000000
%i    0    0    0    0      0      0      0      0         0
%i    0    0    0    0      0      0      0      0         0
/* IAC                                ULTRA-RAPID PREDICTION
/* S/V CLOCKS ARE ALIGNED TO GNSS TIME                      
/* G:C1WC2W R:C1PC2P E:C1XC5X C:C2IC6I J:C1CC2S             
/* PCV:IGS20_2247 OL/AL:FES2004  NONE     YN ORB:CoN CLK:CoN
*  2023 05 07  8 15  0.00000000
PC06 -11069.187626  23262.874890 -33387.420193   -193.600608
PC07 -15168.751821  38925.319142   4983.567979     17.970773
PC08   1146.793550  33403.234717  25814.506069    490.789821
PC09   -364.773489  24389.729534 -33947.806893    682.274402
PC10  -7977.829063  39287.198579  12487.793688    -51.987349
PC11   5081.857018 -15501.422241 -22584.079890    605.929369
PC12  22876.679474 -10561.277713 -11969.125922    621.947939
PC13   6354.709170  36702.010271  20161.982969    269.203663
PC14   6020.000158 -26510.427779   6469.518026    224.964230
PC16 -15047.926528  21743.437629 -32673.397313     86.399648
PC19   1171.279823  23645.315517 -14721.164562   -907.623078
PC20 -11299.185887  25467.173505   1193.885085    582.876059
PC21  17954.479548 -12027.212720 -17652.108147   -913.166594
PC22  13627.833761   8061.994957 -22972.538751   -500.085330
PC23 -20528.069433 -17064.808828  -8126.928230   -922.407118
PC24   6294.293964 -16929.659924  21256.687407    -83.298867
PC25 -11521.151801 -23938.511960   8501.777868    121.570908
PC26  18276.713000  -1426.725287  21034.874297   -116.805022
PC27 -26904.252307   6183.676017   4114.512717    136.565455
PC28 -24598.491478  -5407.196632 -12019.577624    100.913126
PC29   7188.754774  14781.200663  22540.310505    117.080056
PC30 -14579.189646  15277.029278  18242.876861     -0.073151
PC32 -17879.944917  12027.351957  17741.418109   -566.239894
PC33  -1276.042669 -23722.713040  14669.130885   -879.093081
PC34  13208.505396 -15610.269529 -18995.408312    165.279044
PC35  24339.665644   5059.271448  12623.335405    632.249606
PC36  10417.953649  24218.681641  -9131.655501   -456.338948
PC37 -18820.424645   -172.619770 -20584.852695   -784.992134
PC38  -6104.985238  29037.528177  30045.829085     76.717172
PC39 -20062.606392  21164.845891 -30485.873675     -2.839295
PC40 -21772.485480  35797.260938   3416.864477    -22.479954
PC41 -13370.586516  -8785.865569  22922.876305   -946.355705
PC42  11979.862919 -25100.544121  -2426.520568   -702.956706
PC43  -6256.426067 -15150.369252 -22600.779179     20.238006
PC44  26672.175559  -7123.366360  -3969.430131     98.983727
PC45  20591.921266  16779.301902   8588.186934    -94.465911
PC46  -4831.558244  18015.060879 -20769.062731    -52.265010
PE02  -6996.126513  25249.419549 -13793.899114     36.695537
PE03 -16426.929688  21829.072945 -11372.730525   -676.530426
PE04  -2196.439374 -18448.016298  23057.599036   -116.877364
PE05 -25849.088789  12432.412696   7312.555871    -69.771131
PE07  19847.159293   4290.247507 -21528.853844    -43.216416
PE08   1863.662428  18458.927092 -23053.793706    -79.174079
PE09 -19643.461049  -4337.391951  21717.379007     -6.188774
PE10 -21357.482319 -17217.723437 -11131.324770   -531.917179
PE11 -26807.353751 -12547.776552   -888.361286   1847.497523
PE12 -13026.611961 -18981.653137 -18627.280488   -528.467248
PE13  26572.699796  12919.420745   1659.238616    -19.083886
PE14  18034.022033 -23358.499162 -13286.220145    218.163149
PE15  12716.101238  18900.823096  18893.459534    -19.952198
PE18 -13925.667685  16631.430646   9196.615419     35.428482
PE19  18562.933574 -21192.032055   9096.251457  -2591.471747
PE21  15543.324028  -8282.015375  23787.072787   -527.680581
PE24 -15447.390426 -15194.877373 -20172.915415    -85.210950
PE25 -15631.510820   7904.259086 -23859.574647   -604.645444
PE26  24321.736636  -1199.829475 -16826.791490     96.991443
PE27  15646.536420  14422.628598  20578.247216    -43.385440
PE30   6077.652640  28586.584861   4725.206295   -153.000844
PE31  -6530.211357 -28382.014030  -5279.902856   -523.208705
PE33   8512.058658 -13683.251231 -24830.195550   -444.806013
PE34  -8339.092847  13768.897627  24829.931935    -44.118063
PE36 -24700.928427    535.290925  16309.961810    -52.437638
PG01 -21811.595978 -14858.241487  -4709.521039    187.223351
PG02  12759.165490 -10084.526590 -20488.978350   -598.687177
PG03 -12484.467718 -15957.017607  17109.911123   -310.222421
PG04 -17129.070823  -5510.014520  19586.129798     35.201275
PG05   5318.935530  25715.184074  -3701.894042   -126.247905
PG06 -12145.974793   9736.555119  21596.613529    588.121562
PG07 -24595.774177  -5370.435120  -8744.837626    184.187545
PG08  -6420.584876 -14055.305061 -21643.552518   -121.253310
PG09 -22657.167859   4450.560679  13092.278310   -164.239683
PG10  11407.406781 -15096.093654 -18329.432130    -35.909270
PG11   2910.349093  17421.886488  19855.142710   -188.030569
PG12  10337.150484  18990.702514  15201.951071   -372.999620
PG13  -2550.229399  16828.837366 -20511.545153    516.439715
PG14 -13543.917082  11983.953525 -19393.708828     48.651887
PG15   8802.386519  13556.239794 -21516.983412     37.305482
PG16    -74.816158 -26295.532866  -1147.561913   -503.091358
PG17 -22663.988224  13941.218866   1146.670720    713.839194
PG18  23333.279525   2560.526015 -12575.642597   -255.957391
PG19 -18488.031203  16457.282307   8989.014292    313.587794
PG20   1285.522230  25858.781084   6414.394551    434.930940
PG21 -17821.089957 -15958.126441 -11849.853928    153.941216
PG22  15217.230040 -18133.996461  12325.829179    477.125087
PG23  14798.935429  -2048.481544 -21951.423159     22.251983
PG24  20180.231444  15230.685845  -9156.400259   -179.655300
PG25  15015.274842   7493.850593  20334.371632    441.053622
PG26   5696.362389 -22955.388331  11621.245472    241.084560
PG27   5445.175736 -18660.094111 -18157.010739     42.754961
PG28  13819.587341  -9475.907180  20582.130329     75.071260
PG29  21547.853327     14.785445  15531.831415   -598.501884
PG30 -19494.479831   4510.559016 -17480.904914   -518.552600
PG31   4557.815214 -14741.864032  21416.908967   -215.595241
PG32  20576.153631 -16388.306502   2972.193335   -470.437679
PJ02 -20132.669879  29800.789272 -17243.337682      0.108616
PJ03 -29617.128382  23362.904220  23961.377513      3.644840
PJ04 -30839.222468  27460.762055  14597.893684     94.415216
PR01 -16191.003443  15913.776149  11621.899268     57.024696
PR02 -10795.746665  22145.581306  -6681.218025    -22.872155
PR03   1363.754210  15490.060906 -20186.159986     77.376376
PR04  12240.427119    304.789307 -22341.037723    186.216599
PR05  16650.653739 -14884.289644 -12287.647430    112.150127
PR07  -2057.325858 -14822.031442  20689.705802     55.378761
PR08 -12475.585472   -109.419938  22317.089610    -70.667393
PR09  -1820.259349 -19807.225108  16036.276511    118.806147
PR11 -15378.148939 -13560.381878 -15176.846616    -50.719761
PR12  -9744.549672   5109.673042 -22988.697613     27.055018
PR13    479.963012  18606.215411 -17457.434250    -34.765594
PR14  11907.164939  22546.911858    -59.072777     24.649979
PR15  15273.766035  12607.890961  16090.513997     89.425231
PR16   9752.489619  -4805.931783  23083.304297     14.306613
PR17  12519.842615   9792.570808  19964.071798    627.782287
PR18  24085.324905   4666.707384   6890.700774     80.280297
PR19  23989.056407  -1566.881958  -8532.996425   -231.714108
PR20   7885.499782  -9248.876833 -22416.519477    -92.423287
PR21 -13909.050655  -9513.050390 -19146.466904     -5.602041
PR22 -24278.506532  -5191.279374  -5871.610190     81.833810
PR24  -6955.652887  10093.843357  22378.118499    168.183111
PR25 -11811.776721 -10651.950729 -19935.430118     60.462071
EOF
